IRIDIUM 63              
1 25286U 98021B   25100.54258651  .00000936  00000+0  31260-3 0  9999
2 25286  86.3930 110.5191 0002432  92.6843 267.4632 14.36471483414139
IRIDIUM 69              
1 25319U 98026A   25100.55402340  .00001059  00000+0  32453-3 0  9990
2 25319  86.3944 124.0104 0000956 166.9127 193.2097 14.40881594413328
IRIDIUM 71              
1 25320U 98026B   25100.56996510  .00000909  00000+0  27640-3 0  9995
2 25320  86.3932 118.7058 0001519  26.9482 333.1797 14.41079035413850
IRIDIUM 73              
1 25344U 98032C   25100.85468456  .00001583  00000+0  39041-3 0  9990
2 25344  86.4376  75.4111 0001999 100.8542 259.2888 14.51597646421097
IRIDIUM 82              
1 25467U 98051A   25100.61692673  .00036720  00000+0  11648-2 0  9994
2 25467  86.3689 142.8679 0092237 190.8041 169.1229 15.28387107413627
